FLOCK 4G-11             
1 62629U 25009W   26068.45629261  .00012672  00000+0  47740-3 0  9990
2 62629  97.3964 150.6183 0001611 333.5407  26.5750 15.27220677 63680
STARLINK-34766          
1 66505U 25263W   26068.16835736  .00033600  00000+0  12253-2 0  9997
2 66505  43.0014 353.2552 0001371 268.5653  91.5042 15.27571596 18826
